[{"OBJECT_NAME":"GHGSAT-C4","OBJECT_ID":"2022-057Q","EPOCH":"2026-03-09T22:58:28.655904","MEAN_MOTION":15.3293316,"ECCENTRICITY":0.0007552,"INCLINATION":97.6357,"RA_OF_ASC_NODE":210.0193,"ARG_OF_PERICENTER":100.0033,"MEAN_ANOMALY":260.2061,"EPHEMERIS_TYPE":0,"CLASSIFICATION_TYPE":"U","NORAD_CAT_ID":52746,"ELEMENT_SET_NO":999,"REV_AT_EPOCH":21033,"BSTAR":0.00030289005,"MEAN_MOTION_DOT":9.562e-5,"MEAN_MOTION_DDOT":0},{"OBJECT_NAME":"STARLINK-34323","OBJECT_ID":"2025-117S","EPOCH":"2026-03-09T22:06:45.030528","MEAN_MOTION":15.30210876,"ECCENTRICITY":0.00016479,"INCLINATION":53.1607,"RA_OF_ASC_NODE":38.3501,"ARG_OF_PERICENTER":97.1046,"MEAN_ANOMALY":263.0142,"EPHEMERIS_TYPE":0,"CLASSIFICATION_TYPE":"U","NORAD_CAT_ID":64219,"ELEMENT_SET_NO":999,"REV_AT_EPOCH":4459,"BSTAR":0.0010089649,"MEAN_MOTION_DOT":0.00029653,"MEAN_MOTION_DDOT":0}]
